[{"OBJECT_NAME":"STARLINK-32522","OBJECT_ID":"2024-210Y","EPOCH":"2026-03-09T07:35:59.227872","MEAN_MOTION":15.27583829,"ECCENTRICITY":6.555e-5,"INCLINATION":42.9978,"RA_OF_ASC_NODE":181.8649,"ARG_OF_PERICENTER":207.0434,"MEAN_ANOMALY":153.0384,"EPHEMERIS_TYPE":0,"CLASSIFICATION_TYPE":"U","NORAD_CAT_ID":61981,"ELEMENT_SET_NO":999,"REV_AT_EPOCH":7482,"BSTAR":0.0013211828,"MEAN_MOTION_DOT":0.00036277,"MEAN_MOTION_DDOT":0},{"OBJECT_NAME":"TEVEL2-8","OBJECT_ID":"2025-052AF","EPOCH":"2026-03-09T16:02:08.542752","MEAN_MOTION":15.28392908,"ECCENTRICITY":0.0008031,"INCLINATION":97.4055,"RA_OF_ASC_NODE":324.2923,"ARG_OF_PERICENTER":124.9191,"MEAN_ANOMALY":235.2804,"EPHEMERIS_TYPE":0,"CLASSIFICATION_TYPE":"U","NORAD_CAT_ID":63239,"ELEMENT_SET_NO":999,"REV_AT_EPOCH":5480,"BSTAR":0.00069303947,"MEAN_MOTION_DOT":0.0001913,"MEAN_MOTION_DDOT":0}]
