STARLINK-32522          
1 61981U 24210Y   26068.31665773  .00036277  00000+0  13212-2 0  9999
2 61981  42.9978 181.8649 0000655 207.0434 153.0384 15.27583829 74824
TEVEL2-8                
1 63239U 25052AF  26068.66815442  .00019130  00000+0  69304-3 0  9993
2 63239  97.4055 324.2923 0008031 124.9191 235.2804 15.28392908 54807
